{
  "type": "FeatureCollection",
  "features": [
    {
      "type": "Feature",
      "properties": {
        "norad_id": 66956,
        "name": "HULIANWANG DIGUI-117",
        "group": "last-30-days",
        "lat": -62.68515715226123,
        "lon": -20.49970559866195,
        "alt_km": 1011.6060480798087,
        "timestamp": "2025-12-12T07:43:19.260566+00:00",
        "meta_object_name": "HULIANWANG DIGUI-117",
        "meta_object_id": "2025-287D",
        "meta_epoch": "2025-12-11T19:45:00.614592",
        "meta_mean_motion": 13.6901764,
        "meta_eccentricity": 0.00072845,
        "meta_inclination": 86.4968,
        "meta_ra_of_asc_node": 346.4938,
        "meta_arg_of_pericenter": 195.1574,
        "meta_mean_anomaly": 164.9368,
        "meta_ephemeris_type": 0,
        "meta_classification_type": "U",
        "meta_norad_cat_id": 66956,
        "meta_element_set_no": 999,
        "meta_rev_at_epoch": 40,
        "meta_bstar": 1.8810541e-05,
        "meta_mean_motion_dot": 3.3e-07,
        "meta_mean_motion_ddot": 0,
        "tle_line1": "1 66956U 25287D   25345.82292378  .00000033  00000+0  18811-4 0  9994",
        "tle_line2": "2 66956  86.4968 346.4938 0007284 195.1574 164.9368 13.69017640   403"
      },
      "geometry": {
        "type": "Point",
        "coordinates": [
          -20.49970559866195,
          -62.68515715226123
        ]
      }
    },
    {
      "type": "Feature",
      "properties": {
        "norad_id": 66957,
        "name": "HULIANWANG DIGUI-118",
        "group": "last-30-days",
        "lat": -61.30657508381079,
        "lon": -20.123629795416967,
        "alt_km": 1011.4031369079976,
        "timestamp": "2025-12-12T07:43:19.260576+00:00",
        "meta_object_name": "HULIANWANG DIGUI-118",
        "meta_object_id": "2025-287E",
        "meta_epoch": "2025-12-10T19:11:19.771296",
        "meta_mean_motion": 13.69138079,
        "meta_eccentricity": 0.00073806,
        "meta_inclination": 86.4949,
        "meta_ra_of_asc_node": 346.8611,
        "meta_arg_of_pericenter": 196.974,
        "meta_mean_anomaly": 163.1173,
        "meta_ephemeris_type": 0,
        "meta_classification_type": "U",
        "meta_norad_cat_id": 66957,
        "meta_element_set_no": 999,
        "meta_rev_at_epoch": 26,
        "meta_bstar": -0.00019717069,
        "meta_mean_motion_dot": -1.54e-06,
        "meta_mean_motion_ddot": 0,
        "tle_line1": "1 66957U 25287E   25344.79953439 -.00000154  00000+0 -19717-3 0  9993",
        "tle_line2": "2 66957  86.4949 346.8611 0007380 196.9740 163.1173 13.69138079   265"
      },
      "geometry": {
        "type": "Point",
        "coordinates": [
          -20.123629795416967,
          -61.30657508381079
        ]
      }
    },
    {
      "type": "Feature",
      "properties": {
        "norad_id": 66958,
        "name": "CZ-6A R/B",
        "group": "last-30-days",
        "lat": -68.63638462712291,
        "lon": 175.24597216902495,
        "alt_km": 982.9292171057104,
        "timestamp": "2025-12-12T07:43:19.260587+00:00",
        "meta_object_name": "CZ-6A R/B",
        "meta_object_id": "2025-287F",
        "meta_epoch": "2025-12-11T23:39:18.729216",
        "meta_mean_motion": 13.94919208,
        "meta_eccentricity": 0.01072249,
        "meta_inclination": 86.5058,
        "meta_ra_of_asc_node": 346.3874,
        "meta_arg_of_pericenter": 104.4211,
        "meta_mean_anomaly": 256.8892,
        "meta_ephemeris_type": 0,
        "meta_classification_type": "U",
        "meta_norad_cat_id": 66958,
        "meta_element_set_no": 999,
        "meta_rev_at_epoch": 43,
        "meta_bstar": 0.00020439266,
        "meta_mean_motion_dot": 3.07e-06,
        "meta_mean_motion_ddot": 0,
        "tle_line1": "1 66958U 25287F   25345.98563344  .00000307  00000+0  20439-3 0  9999",
        "tle_line2": "2 66958  86.5058 346.3874 0107224 104.4211 256.8892 13.94919208   435"
      },
      "geometry": {
        "type": "Point",
        "coordinates": [
          175.24597216902495,
          -68.63638462712291
        ]
      }
    },
    {
      "type": "Feature",
      "properties": {
        "norad_id": 66988,
        "name": "YAOGAN-47",
        "group": "last-30-days",
        "lat": -43.52981378638609,
        "lon": -135.7740988489612,
        "alt_km": 503.6640905574359,
        "timestamp": "2025-12-12T07:43:19.260598+00:00",
        "meta_object_name": "YAOGAN-47",
        "meta_object_id": "2025-289A",
        "meta_epoch": "2025-12-11T14:58:29.248032",
        "meta_mean_motion": 15.23120362,
        "meta_eccentricity": 8.584e-05,
        "meta_inclination": 97.5268,
        "meta_ra_of_asc_node": 50.7421,
        "meta_arg_of_pericenter": 73.685,
        "meta_mean_anomaly": 286.448,
        "meta_ephemeris_type": 0,
        "meta_classification_type": "U",
        "meta_norad_cat_id": 66988,
        "meta_element_set_no": 999,
        "meta_rev_at_epoch": 37,
        "meta_bstar": 0.00024920475,
        "meta_mean_motion_dot": 5.809e-05,
        "meta_mean_motion_ddot": 0,
        "tle_line1": "1 66988U 25289A   25345.62394963  .00005809  00000+0  24920-3 0  9995",
        "tle_line2": "2 66988  97.5268  50.7421 0000858  73.6850 286.4480 15.23120362   372"
      },
      "geometry": {
        "type": "Point",
        "coordinates": [
          -135.7740988489612,
          -43.52981378638609
        ]
      }
    },
    {
      "type": "Feature",
      "properties": {
        "norad_id": 66989,
        "name": "CZ-4B R/B",
        "group": "last-30-days",
        "lat": -33.25361211096719,
        "lon": 56.60914498364398,
        "alt_km": 293.34622036959354,
        "timestamp": "2025-12-12T07:43:19.260608+00:00",
        "meta_object_name": "CZ-4B R/B",
        "meta_object_id": "2025-289B",
        "meta_epoch": "2025-12-11T22:39:54.988416",
        "meta_mean_motion": 15.66870974,
        "meta_eccentricity": 0.01503979,
        "meta_inclination": 97.5269,
        "meta_ra_of_asc_node": 51.2309,
        "meta_arg_of_pericenter": 5.8849,
        "meta_mean_anomaly": 354.4132,
        "meta_ephemeris_type": 0,
        "meta_classification_type": "U",
        "meta_norad_cat_id": 66989,
        "meta_element_set_no": 999,
        "meta_rev_at_epoch": 44,
        "meta_bstar": 0.00079739188,
        "meta_mean_motion_dot": 0.00158184,
        "meta_mean_motion_ddot": 9.242215e-06,
        "tle_line1": "1 66989U 25289B   25345.94438644  .00158184  92422-5  79739-3 0  9994",
        "tle_line2": "2 66989  97.5269  51.2309 0150397   5.8849 354.4132 15.66870974   440"
      },
      "geometry": {
        "type": "Point",
        "coordinates": [
          56.60914498364398,
          -33.25361211096719
        ]
      }
    },
    {
      "type": "Feature",
      "properties": {
        "norad_id": 66990,
        "name": "TJS-22",
        "group": "last-30-days",
        "lat": 14.86768057607394,
        "lon": -12.983058297436482,
        "alt_km": 19557.19934613821,
        "timestamp": "2025-12-12T07:43:19.260622+00:00",
        "meta_object_name": "TJS-22",
        "meta_object_id": "2025-290A",
        "meta_epoch": "2025-12-10T07:11:32.845344",
        "meta_mean_motion": 2.15443148,
        "meta_eccentricity": 0.6664534,
        "meta_inclination": 20.1261,
        "meta_ra_of_asc_node": 301.1464,
        "meta_arg_of_pericenter": 180.6877,
        "meta_mean_anomaly": 177.6237,
        "meta_ephemeris_type": 0,
        "meta_classification_type": "U",
        "meta_norad_cat_id": 66990,
        "meta_element_set_no": 999,
        "meta_rev_at_epoch": 3,
        "meta_bstar": 0.079788243,
        "meta_mean_motion_dot": -3.8e-07,
        "meta_mean_motion_ddot": 0,
        "tle_line1": "1 66990U 25290A   25344.29968571 -.00000038  00000+0  79788-1 0  9994",
        "tle_line2": "2 66990  20.1261 301.1464 6664534 180.6877 177.6237  2.15443148    32"
      },
      "geometry": {
        "type": "Point",
        "coordinates": [
          -12.983058297436482,
          14.86768057607394
        ]
      }
    },
    {
      "type": "Feature",
      "properties": {
        "norad_id": 66991,
        "name": "CZ-3B R/B",
        "group": "last-30-days",
        "lat": -5.515963102787783,
        "lon": -68.46736579473522,
        "alt_km": 32200.406751943327,
        "timestamp": "2025-12-12T07:43:19.260634+00:00",
        "meta_object_name": "CZ-3B R/B",
        "meta_object_id": "2025-290B",
        "meta_epoch": "2025-12-10T06:44:55.577184",
        "meta_mean_motion": 2.37676924,
        "meta_eccentricity": 0.72420555,
        "meta_inclination": 28.4645,
        "meta_ra_of_asc_node": 302.5976,
        "meta_arg_of_pericenter": 179.3847,
        "meta_mean_anomaly": 182.8677,
        "meta_ephemeris_type": 0,
        "meta_classification_type": "U",
        "meta_norad_cat_id": 66991,
        "meta_element_set_no": 999,
        "meta_rev_at_epoch": 3,
        "meta_bstar": 0.00043781284,
        "meta_mean_motion_dot": 0.00018897,
        "meta_mean_motion_ddot": 4.56211e-07,
        "tle_line1": "1 66991U 25290B   25344.28119881  .00018897  45621-6  43781-3 0  9998",
        "tle_line2": "2 66991  28.4645 302.5976 7242055 179.3847 182.8677  2.37676924    36"
      },
      "geometry": {
        "type": "Point",
        "coordinates": [
          -68.46736579473522,
          -5.515963102787783
        ]
      }
    }
  ]
}